{"type": "FeatureCollection", "features": [{"type": "Feature", "geometry": {"type": "Polygon", "coordinates": [[[92.1745, 23.7087], [92.1797, 23.7064], [92.1878, 23.7086], [92.1971, 23.7066], [92.2044, 23.7062], [92.2099, 23.6989], [92.2144, 23.6903], [92.2167, 23.6841], [92.2148, 23.6782], [92.2112, 23.6742], [92.2095, 23.6699], [92.2096, 23.6655], [92.2117, 23.6598], [92.2162, 23.6565], [92.2167, 23.6528], [92.2236, 23.6518], [92.2288, 23.6534], [92.2332, 23.6611], [92.2358, 23.6685], [92.2354, 23.6755], [92.2361, 23.685], [92.238, 23.6882], [92.2444, 23.6944], [92.2451, 23.6982], [92.2391, 23.7139], [92.2415, 23.7193], [92.2494, 23.725], [92.2545, 23.7266], [92.2654, 23.7251], [92.2666, 23.7325], [92.2654, 23.7429], [92.2671, 23.7517], [92.2654, 23.7607], [92.2672, 23.7687], [92.265, 23.7725], [92.2632, 23.7816], [92.2579, 23.803], [92.257, 23.8129], [92.2662, 23.816], [92.2812, 23.8142], [92.2824, 23.8177], [92.2775, 23.8275], [92.2722, 23.8347], [92.2686, 23.8418], [92.2691, 23.847], [92.2726, 23.8516], [92.2787, 23.8559], [92.285, 23.8673], [92.2896, 23.8683], [92.2926, 23.8646], [92.2992, 23.8598], [92.309, 23.8571], [92.3111, 23.86], [92.3145, 23.8604], [92.3165, 23.8654], [92.3106, 23.8709], [92.3125, 23.8844], [92.3166, 23.8895], [92.3166, 23.898], [92.3221, 23.9022], [92.3239, 23.905], [92.322, 23.9088], [92.325, 23.9139], [92.3189, 23.9162], [92.3164, 23.9278], [92.3089, 23.9329], [92.3106, 23.9349], [92.3093, 23.9454], [92.3106, 23.952], [92.3082, 23.9543], [92.3079, 23.9607], [92.3099, 23.9631], [92.3085, 23.9682], [92.3108, 23.973], [92.3141, 23.9728], [92.32, 23.9791], [92.3231, 23.9884], [92.3219, 23.9932], [92.326, 23.9975], [92.3227, 24.0028], [92.3238, 24.0054], [92.3191, 24.0077], [92.3201, 24.012], [92.3166, 24.0168], [92.3168, 24.0219], [92.3192, 24.0255], [92.3144, 24.0267], [92.3168, 24.0302], [92.3123, 24.0322], [92.3156, 24.035], [92.3156, 24.0378], [92.3121, 24.0392], [92.3162, 24.045], [92.3122, 24.0509], [92.3175, 24.0558], [92.3168, 24.0611], [92.3197, 24.0635], [92.3164, 24.0675], [92.3212, 24.0728], [92.3207, 24.0763], [92.3238, 24.0801], [92.3222, 24.082], [92.3243, 24.0863], [92.3248, 24.0977], [92.3276, 24.1016], [92.3232, 24.1037], [92.3255, 24.1096], [92.3243, 24.1149], [92.327, 24.1171], [92.3246, 24.1198], [92.3257, 24.1332], [92.325, 24.1398], [92.3286, 24.1432], [92.3315, 24.1524], [92.3286, 24.1552], [92.3289, 24.1646], [92.3243, 24.1683], [92.3269, 24.181], [92.3226, 24.1898], [92.3222, 24.193], [92.3244, 24.1978], [92.3198, 24.1974], [92.3214, 24.2032], [92.3146, 24.2065], [92.3162, 24.2116], [92.3093, 24.2224], [92.3042, 24.2236], [92.297, 24.2321], [92.2923, 24.2505], [92.2896, 24.2519], [92.2819, 24.252], [92.2682, 24.2503], [92.2647, 24.2506], [92.2604, 24.2484], [92.2466, 24.2435], [92.2416, 24.2428], [92.2369, 24.2403], [92.2294, 24.2401], [92.2248, 24.2411], [92.2212, 24.2349], [92.2173, 24.2343], [92.2142, 24.2371], [92.206, 24.2385], [92.2009, 24.2421], [92.2035, 24.2457], [92.2097, 24.2483], [92.209, 24.2556], [92.2103, 24.2603], [92.2188, 24.2857], [92.2244, 24.2935], [92.2332, 24.3029], [92.239, 24.3122], [92.2383, 24.318], [92.239, 24.3242], [92.2449, 24.3361], [92.2544, 24.352], [92.2598, 24.3585], [92.258, 24.3781], [92.2581, 24.3889], [92.2566, 24.3996], [92.2546, 24.4041], [92.2538, 24.4165], [92.2502, 24.4216], [92.2507, 24.4248], [92.2465, 24.4425], [92.2421, 24.4454], [92.238, 24.4444], [92.23, 24.4523], [92.2317, 24.4561], [92.2286, 24.4615], [92.2303, 24.4667], [92.2286, 24.4709], [92.2287, 24.4757], [92.2327, 24.4841], [92.2365, 24.4888], [92.2316, 24.4943], [92.2298, 24.5024], [92.2138, 24.5038], [92.2046, 24.5066], [92.1889, 24.5156], [92.1854, 24.5205], [92.1758, 24.5221], [92.1689, 24.5272], [92.1658, 24.5274], [92.1593, 24.5253], [92.1587, 24.5214], [92.1545, 24.5166], [92.1562, 24.5132], [92.1524, 24.5089], [92.1584, 24.5081], [92.1576, 24.5057], [92.1525, 24.503], [92.1498, 24.4907], [92.1536, 24.4884], [92.1533, 24.4825], [92.1563, 24.4784], [92.1556, 24.475], [92.157, 24.4686], [92.1562, 24.4641], [92.162, 24.4547], [92.1617, 24.4511], [92.166, 24.4459], [92.1648, 24.4389], [92.1687, 24.4343], [92.1679, 24.4242], [92.1621, 24.4193], [92.154, 24.4257], [92.1477, 24.4218], [92.1396, 24.4255], [92.1348, 24.4184], [92.1327, 24.4118], [92.1333, 24.4085], [92.1288, 24.4054], [92.1221, 24.3973], [92.1126, 24.3925], [92.1151, 24.3903], [92.1142, 24.3868], [92.1105, 24.3834], [92.1049, 24.3807], [92.0968, 24.3792], [92.0922, 24.3811], [92.0908, 24.3782], [92.0831, 24.3751], [92.0758, 24.3769], [92.07, 24.3767], [92.0688, 24.371], [92.0683, 24.362], [92.0688, 24.3561], [92.0681, 24.3397], [92.0659, 24.3332], [92.0626, 24.3135], [92.063, 24.3112], [92.0682, 24.3035], [92.0714, 24.3004], [92.0697, 24.2894], [92.0682, 24.2706], [92.07, 24.2711], [92.0786, 24.2677], [92.0892, 24.2612], [92.0972, 24.264], [92.1001, 24.2589], [92.0996, 24.2497], [92.1014, 24.2421], [92.1046, 24.2369], [92.1101, 24.2363], [92.1205, 24.2282], [92.1226, 24.2218], [92.13, 24.2211], [92.1339, 24.2146], [92.134, 24.2058], [92.1361, 24.1954], [92.139, 24.192], [92.1417, 24.1995], [92.1451, 24.2018], [92.1526, 24.2019], [92.1642, 24.2033], [92.1672, 24.2027], [92.1705, 24.1928], [92.174, 24.1905], [92.1779, 24.1935], [92.1845, 24.1917], [92.1846, 24.188], [92.1875, 24.1846], [92.1927, 24.1827], [92.2005, 24.1842], [92.2048, 24.1819], [92.2051, 24.1758], [92.2032, 24.1582], [92.2019, 24.1534], [92.1948, 24.15], [92.1923, 24.1442], [92.1876, 24.1422], [92.181, 24.1369], [92.173, 24.1337], [92.1668, 24.1324], [92.1555, 24.1246], [92.1514, 24.1195], [92.1459, 24.118], [92.1456, 24.1161], [92.1522, 24.1145], [92.159, 24.1141], [92.1615, 24.1104], [92.1645, 24.11], [92.1672, 24.1038], [92.1618, 24.0897], [92.1607, 24.0781], [92.1482, 24.0635], [92.1451, 24.0579], [92.1419, 24.0493], [92.1386, 24.0461], [92.143, 24.0439], [92.1427, 24.0408], [92.1381, 24.0393], [92.1332, 24.0326], [92.1225, 24.0383], [92.1171, 24.0326], [92.1168, 24.0249], [92.1104, 24.0238], [92.1117, 24.0213], [92.1081, 24.0165], [92.109, 24.0077], [92.1129, 24.0047], [92.1187, 24.0024], [92.1165, 23.995], [92.1068, 23.9918], [92.0998, 23.9915], [92.0969, 23.9928], [92.083, 23.9894], [92.0814, 23.9829], [92.0818, 23.9737], [92.0838, 23.9663], [92.0825, 23.9631], [92.0832, 23.9559], [92.0804, 23.933], [92.0855, 23.9281], [92.0892, 23.9288], [92.104, 23.9278], [92.1173, 23.9313], [92.1234, 23.93], [92.1297, 23.9243], [92.1317, 23.9164], [92.1347, 23.9111], [92.1356, 23.901], [92.1376, 23.8961], [92.1456, 23.8803], [92.1477, 23.8747], [92.1499, 23.8728], [92.148, 23.8645], [92.1538, 23.8555], [92.1551, 23.8483], [92.1543, 23.8391], [92.1567, 23.8338], [92.1556, 23.8238], [92.1532, 23.814], [92.1558, 23.8117], [92.1538, 23.793], [92.1559, 23.7896], [92.1546, 23.7827], [92.1568, 23.77], [92.1607, 23.7649], [92.164, 23.7556], [92.1716, 23.7507], [92.1704, 23.7342], [92.1686, 23.7209], [92.1745, 23.7132], [92.1745, 23.7087]]]}, "properties": {"district": "North Tripura", "key": "NORTH TRIPURA"}, "id": 390}, {"type": "Feature", "geometry": {"type": "Polygon", "coordinates": [[[92.083, 23.9894], [92.0811, 23.9996], [92.0858, 24.0071], [92.0854, 24.0117], [92.0871, 24.016], [92.0843, 24.0182], [92.0747, 24.0194], [92.067, 24.0253], [92.0593, 24.0284], [92.0598, 24.0323], [92.066, 24.0514], [92.0642, 24.0575], [92.0672, 24.0656], [92.0692, 24.0754], [92.0661, 24.0829], [92.0716, 24.0904], [92.0734, 24.0957], [92.0702, 24.0978], [92.0549, 24.1001], [92.0507, 24.1001], [92.0421, 24.0973], [92.0302, 24.0904], [92.0222, 24.0948], [92.0149, 24.0926], [92.0106, 24.0991], [92.0064, 24.0994], [92.0057, 24.0921], [92.0022, 24.0858], [92.0037, 24.0804], [92.0016, 24.075], [91.9984, 24.0793], [91.9931, 24.0817], [91.9902, 24.0793], [91.9886, 24.0737], [91.9788, 24.0653], [91.9752, 24.0661], [91.9717, 24.064], [91.9705, 24.0603], [91.9666, 24.0615], [91.968, 24.0699], [91.9717, 24.0724], [91.9628, 24.0781], [91.9606, 24.083], [91.9509, 24.0942], [91.9471, 24.0961], [91.9424, 24.0963], [91.9366, 24.0991], [91.9337, 24.1028], [91.9235, 24.1082], [91.9226, 24.1119], [91.9183, 24.1155], [91.9161, 24.122], [91.911, 24.1308], [91.9033, 24.1376], [91.8993, 24.1396], [91.8844, 24.1411], [91.8751, 24.1506], [91.874, 24.1552], [91.8667, 24.1621], [91.8651, 24.173], [91.8606, 24.1817], [91.8572, 24.1841], [91.8517, 24.1856], [91.8483, 24.1888], [91.8378, 24.196], [91.8356, 24.2012], [91.8396, 24.2044], [91.8418, 24.2117], [91.8469, 24.2166], [91.8456, 24.2216], [91.8392, 24.2198], [91.8417, 24.225], [91.8408, 24.2275], [91.8326, 24.2269], [91.8303, 24.2203], [91.8271, 24.215], [91.8217, 24.2107], [91.816, 24.2101], [91.8104, 24.2117], [91.8077, 24.2139], [91.8058, 24.2187], [91.8018, 24.2211], [91.7901, 24.2209], [91.7799, 24.2256], [91.7573, 24.238], [91.7469, 24.2452], [91.7462, 24.2333], [91.746, 24.2145], [91.7489, 24.1939], [91.754, 24.1643], [91.7571, 24.1438], [91.7563, 24.1418], [91.7496, 24.1353], [91.7433, 24.1322], [91.7443, 24.129], [91.7503, 24.1257], [91.7539, 24.1078], [91.7526, 24.1027], [91.754, 24.0919], [91.7542, 24.0791], [91.753, 24.0651], [91.7508, 24.0522], [91.7494, 24.0309], [91.7519, 24.0227], [91.7484, 24.0112], [91.7472, 23.995], [91.7488, 23.9828], [91.7507, 23.9809], [91.7526, 23.9747], [91.7528, 23.9586], [91.7606, 23.9517], [91.7606, 23.9474], [91.7641, 23.9441], [91.7691, 23.9429], [91.7713, 23.9361], [91.7769, 23.9331], [91.7795, 23.9287], [91.7793, 23.9248], [91.7731, 23.9181], [91.7726, 23.915], [91.7785, 23.9125], [91.7801, 23.9037], [91.7774, 23.8945], [91.7791, 23.8891], [91.7789, 23.8778], [91.78, 23.8705], [91.7794, 23.8646], [91.7806, 23.8615], [91.7798, 23.8531], [91.7784, 23.8486], [91.7788, 23.8444], [91.7771, 23.8381], [91.779, 23.8335], [91.78, 23.8257], [91.7828, 23.8239], [91.7843, 23.8182], [91.7813, 23.8103], [91.7828, 23.8048], [91.7789, 23.796], [91.7787, 23.7897], [91.7772, 23.7829], [91.7794, 23.776], [91.7802, 23.7689], [91.779, 23.7669], [91.7783, 23.7554], [91.7794, 23.7492], [91.7785, 23.7469], [91.7721, 23.742], [91.771, 23.7384], [91.7736, 23.7325], [91.7748, 23.7266], [91.7783, 23.7192], [91.7776, 23.7077], [91.7706, 23.7031], [91.7726, 23.6943], [91.7744, 23.6918], [91.7677, 23.6894], [91.7652, 23.6844], [91.765, 23.6804], [91.7691, 23.6721], [91.7639, 23.6666], [91.7627, 23.6639], [91.7576, 23.6636], [91.7555, 23.6593], [91.7627, 23.6591], [91.7612, 23.6557], [91.7557, 23.652], [91.7646, 23.6517], [91.7658, 23.6438], [91.7692, 23.6391], [91.7689, 23.6318], [91.766, 23.6262], [91.7735, 23.6168], [91.7757, 23.6102], [91.7766, 23.5938], [91.7736, 23.5888], [91.7765, 23.5782], [91.7788, 23.5722], [91.7795, 23.5615], [91.7815, 23.5523], [91.7875, 23.5446], [91.7956, 23.5365], [91.8011, 23.5365], [91.803, 23.5342], [91.8046, 23.5274], [91.8066, 23.5259], [91.8011, 23.5178], [91.8026, 23.517], [91.8184, 23.5015], [91.8262, 23.4947], [91.8288, 23.4819], [91.8284, 23.4778], [91.8347, 23.4783], [91.8369, 23.4676], [91.8383, 23.4652], [91.8457, 23.4611], [91.846, 23.4583], [91.8552, 23.4543], [91.8552, 23.4481], [91.8645, 23.4472], [91.8647, 23.4434], [91.8612, 23.4414], [91.8573, 23.4356], [91.8565, 23.4323], [91.8636, 23.4083], [91.8704, 23.4129], [91.8749, 23.4144], [91.885, 23.4158], [91.8905, 23.4193], [91.8943, 23.4201], [91.8981, 23.426], [91.9013, 23.4275], [91.9055, 23.4327], [91.906, 23.4399], [91.9096, 23.4397], [91.9106, 23.4361], [91.915, 23.4327], [91.9196, 23.4337], [91.9231, 23.4366], [91.9276, 23.434], [91.9307, 23.4279], [91.9378, 23.4309], [91.94, 23.4279], [91.9471, 23.4305], [91.9479, 23.4354], [91.9454, 23.4526], [91.9431, 23.4598], [91.9434, 23.4644], [91.9401, 23.4675], [91.9467, 23.4682], [91.9599, 23.4786], [91.9622, 23.4818], [91.9654, 23.4808], [91.9736, 23.4813], [91.9722, 23.4902], [91.9756, 23.4953], [91.9709, 23.5005], [91.9735, 23.5037], [91.9675, 23.5156], [91.9586, 23.5219], [91.9563, 23.5264], [91.9567, 23.5304], [91.9652, 23.5366], [91.9622, 23.543], [91.9616, 23.549], [91.9593, 23.5533], [91.9589, 23.5623], [91.9609, 23.5659], [91.9595, 23.5688], [91.9602, 23.5734], [91.9576, 23.5782], [91.9591, 23.5827], [91.9567, 23.5889], [91.9579, 23.5942], [91.9549, 23.6023], [91.9552, 23.6099], [91.954, 23.6165], [91.9483, 23.6247], [91.943, 23.6351], [91.9463, 23.6378], [91.9476, 23.6477], [91.9432, 23.656], [91.9414, 23.6618], [91.9433, 23.6656], [91.9422, 23.673], [91.9397, 23.6831], [91.9371, 23.6905], [91.9429, 23.695], [91.9434, 23.697], [91.95, 23.6989], [91.9573, 23.6977], [91.9589, 23.7016], [91.9532, 23.7044], [91.9551, 23.7093], [91.9533, 23.7133], [91.9539, 23.7215], [91.9593, 23.7265], [91.9584, 23.7313], [91.9596, 23.7344], [91.9584, 23.7386], [91.9664, 23.7378], [91.9685, 23.7336], [91.9728, 23.7314], [91.9776, 23.7337], [91.9835, 23.7282], [91.9851, 23.7192], [91.9899, 23.7126], [91.9916, 23.7049], [91.9966, 23.6964], [91.9984, 23.6866], [92.0013, 23.6767], [92.004, 23.6729], [92.0066, 23.6654], [92.0104, 23.6647], [92.0127, 23.6614], [92.0167, 23.6637], [92.0215, 23.6634], [92.0242, 23.6591], [92.0288, 23.6575], [92.0309, 23.6544], [92.0359, 23.6515], [92.0378, 23.6483], [92.0426, 23.6464], [92.046, 23.6487], [92.0508, 23.6483], [92.063, 23.6442], [92.0647, 23.6461], [92.069, 23.6447], [92.0745, 23.6466], [92.0778, 23.6615], [92.0764, 23.6638], [92.0779, 23.6682], [92.081, 23.6688], [92.0852, 23.6764], [92.0893, 23.6742], [92.0936, 23.6743], [92.0962, 23.678], [92.098, 23.6864], [92.1051, 23.6895], [92.1081, 23.6939], [92.1082, 23.7051], [92.1108, 23.7071], [92.1138, 23.7166], [92.1167, 23.7224], [92.118, 23.7311], [92.1247, 23.7317], [92.1283, 23.7356], [92.1357, 23.7352], [92.1516, 23.7276], [92.1547, 23.7196], [92.1617, 23.7128], [92.1704, 23.7058], [92.1745, 23.7087], [92.1745, 23.7132], [92.1686, 23.7209], [92.1704, 23.7342], [92.1716, 23.7507], [92.164, 23.7556], [92.1607, 23.7649], [92.1568, 23.77], [92.1546, 23.7827], [92.1559, 23.7896], [92.1538, 23.793], [92.1558, 23.8117], [92.1532, 23.814], [92.1556, 23.8238], [92.1567, 23.8338], [92.1543, 23.8391], [92.1551, 23.8483], [92.1538, 23.8555], [92.148, 23.8645], [92.1499, 23.8728], [92.1477, 23.8747], [92.1456, 23.8803], [92.1376, 23.8961], [92.1356, 23.901], [92.1347, 23.9111], [92.1317, 23.9164], [92.1297, 23.9243], [92.1234, 23.93], [92.1173, 23.9313], [92.104, 23.9278], [92.0892, 23.9288], [92.0855, 23.9281], [92.0804, 23.933], [92.0832, 23.9559], [92.0825, 23.9631], [92.0838, 23.9663], [92.0818, 23.9737], [92.0814, 23.9829], [92.083, 23.9894]]]}, "properties": {"district": "Dhalai", "key": "DHALAI"}, "id": 401}, {"type": "Feature", "geometry": {"type": "Polygon", "coordinates": [[[91.5656, 23.789], [91.5602, 23.7898], [91.5531, 23.7856], [91.5481, 23.7794], [91.5456, 23.7737], [91.5439, 23.7731], [91.5332, 23.7746], [91.5301, 23.7684], [91.5248, 23.7689], [91.5226, 23.765], [91.5167, 23.7605], [91.5036, 23.7552], [91.4951, 23.754], [91.4774, 23.7495], [91.474, 23.747], [91.4677, 23.7489], [91.4639, 23.7474], [91.4533, 23.7485], [91.4468, 23.7512], [91.4408, 23.7517], [91.4369, 23.7635], [91.4348, 23.7669], [91.4309, 23.766], [91.4275, 23.7683], [91.4183, 23.7693], [91.4075, 23.7682], [91.4037, 23.7665], [91.3983, 23.7673], [91.3936, 23.7704], [91.389, 23.7717], [91.3855, 23.7574], [91.3867, 23.7495], [91.3787, 23.7513], [91.3714, 23.7451], [91.3686, 23.7458], [91.3589, 23.7437], [91.3556, 23.7478], [91.3444, 23.7553], [91.3363, 23.7561], [91.333, 23.7606], [91.3174, 23.7618], [91.316, 23.7556], [91.3175, 23.7529], [91.3169, 23.7466], [91.3184, 23.7419], [91.3163, 23.7355], [91.32, 23.7347], [91.3165, 23.7273], [91.3107, 23.7232], [91.3073, 23.7302], [91.3043, 23.7299], [91.2984, 23.7363], [91.2984, 23.7439], [91.2941, 23.745], [91.2842, 23.7368], [91.2838, 23.729], [91.2791, 23.7291], [91.2774, 23.7226], [91.2696, 23.7233], [91.2592, 23.7288], [91.2586, 23.7333], [91.2529, 23.7315], [91.2465, 23.7321], [91.2468, 23.7374], [91.2432, 23.7402], [91.2358, 23.7396], [91.2296, 23.7318], [91.2211, 23.7371], [91.2209, 23.7424], [91.2169, 23.7432], [91.2095, 23.7518], [91.1928, 23.7525], [91.1841, 23.7518], [91.18, 23.7501], [91.168, 23.7504], [91.1657, 23.7496], [91.1581, 23.7421], [91.157, 23.7359], [91.1554, 23.734], [91.1525, 23.7211], [91.1497, 23.7125], [91.1518, 23.7074], [91.1531, 23.6918], [91.1543, 23.6908], [91.1675, 23.6911], [91.1927, 23.6934], [91.1956, 23.6957], [91.202, 23.6902], [91.203, 23.6842], [91.2, 23.6676], [91.2006, 23.6631], [91.206, 23.6598], [91.2137, 23.6589], [91.2113, 23.6554], [91.2019, 23.655], [91.2022, 23.6511], [91.1987, 23.6508], [91.1981, 23.6478], [91.1899, 23.6475], [91.1913, 23.6551], [91.1773, 23.6575], [91.173, 23.6564], [91.169, 23.6578], [91.1659, 23.663], [91.1611, 23.6643], [91.1568, 23.6674], [91.1603, 23.6527], [91.1586, 23.6396], [91.1601, 23.631], [91.1582, 23.6288], [91.1571, 23.6199], [91.159, 23.6156], [91.1581, 23.6107], [91.1618, 23.6002], [91.1608, 23.5945], [91.1669, 23.5918], [91.1749, 23.5923], [91.1765, 23.5906], [91.1737, 23.5851], [91.1861, 23.5753], [91.186, 23.5716], [91.194, 23.5607], [91.1931, 23.5448], [91.1973, 23.5446], [91.2009, 23.5474], [91.2034, 23.544], [91.208, 23.5429], [91.2092, 23.5455], [91.2132, 23.5471], [91.2127, 23.5422], [91.2078, 23.5397], [91.2018, 23.5229], [91.2004, 23.5169], [91.2081, 23.5079], [91.2142, 23.5097], [91.2243, 23.5106], [91.225, 23.5093], [91.2208, 23.4973], [91.2209, 23.4951], [91.2259, 23.493], [91.2306, 23.4944], [91.2381, 23.4985], [91.2382, 23.4929], [91.2411, 23.4919], [91.2413, 23.4854], [91.2445, 23.4869], [91.2538, 23.4879], [91.258, 23.4793], [91.2579, 23.4614], [91.2618, 23.4574], [91.2605, 23.4531], [91.2657, 23.4462], [91.2665, 23.4429], [91.2717, 23.4399], [91.2789, 23.4332], [91.2725, 23.4273], [91.2831, 23.4193], [91.2845, 23.4037], [91.2841, 23.3873], [91.2835, 23.3834], [91.2919, 23.3811], [91.2955, 23.3827], [91.298, 23.3793], [91.297, 23.3758], [91.2875, 23.3766], [91.288, 23.3683], [91.2966, 23.3653], [91.2926, 23.355], [91.3027, 23.3554], [91.317, 23.3634], [91.3235, 23.363], [91.3219, 23.3541], [91.3145, 23.3549], [91.3131, 23.3524], [91.3125, 23.3439], [91.3134, 23.3408], [91.3045, 23.3415], [91.2956, 23.338], [91.2916, 23.3214], [91.2884, 23.3145], [91.295, 23.3091], [91.3101, 23.3091], [91.3139, 23.3006], [91.3155, 23.2899], [91.3071, 23.2933], [91.2992, 23.2854], [91.302, 23.2782], [91.3101, 23.2758], [91.3161, 23.2801], [91.3206, 23.2802], [91.3262, 23.2767], [91.3294, 23.2766], [91.3364, 23.2791], [91.3395, 23.2789], [91.3474, 23.2828], [91.3568, 23.2907], [91.3567, 23.2936], [91.3603, 23.2954], [91.37, 23.3022], [91.3698, 23.3078], [91.373, 23.3097], [91.3745, 23.3156], [91.3777, 23.3206], [91.3774, 23.3231], [91.3811, 23.3258], [91.3854, 23.3246], [91.3875, 23.3267], [91.3863, 23.3304], [91.3894, 23.3336], [91.3914, 23.3389], [91.3891, 23.3445], [91.3882, 23.3522], [91.3901, 23.3582], [91.3941, 23.3608], [91.3987, 23.3587], [91.4026, 23.3633], [91.4047, 23.3635], [91.4065, 23.3684], [91.4108, 23.3675], [91.4129, 23.3717], [91.4202, 23.3741], [91.4225, 23.3822], [91.419, 23.3835], [91.4184, 23.39], [91.4118, 23.3892], [91.4042, 23.3958], [91.4015, 23.3955], [91.3937, 23.3998], [91.3869, 23.4017], [91.3851, 23.4035], [91.384, 23.412], [91.3853, 23.4153], [91.3849, 23.4226], [91.3879, 23.4243], [91.3877, 23.4324], [91.3855, 23.4355], [91.3805, 23.4367], [91.3795, 23.441], [91.3768, 23.4445], [91.3788, 23.4491], [91.3799, 23.4553], [91.3795, 23.4627], [91.3812, 23.4681], [91.3842, 23.4701], [91.3875, 23.4754], [91.3923, 23.4788], [91.3882, 23.4831], [91.3827, 23.486], [91.3849, 23.494], [91.383, 23.4963], [91.3834, 23.5013], [91.38, 23.5075], [91.38, 23.5115], [91.3756, 23.517], [91.3797, 23.5216], [91.3873, 23.5257], [91.3908, 23.5244], [91.3959, 23.525], [91.4007, 23.5235], [91.4015, 23.5304], [91.397, 23.5322], [91.3954, 23.5368], [91.3985, 23.5392], [91.3986, 23.5437], [91.3968, 23.5482], [91.398, 23.5511], [91.3944, 23.5541], [91.3947, 23.5579], [91.3984, 23.5621], [91.3983, 23.5685], [91.3994, 23.5779], [91.3978, 23.5849], [91.4031, 23.5877], [91.4106, 23.5946], [91.4139, 23.5952], [91.4167, 23.6002], [91.425, 23.6031], [91.4295, 23.6087], [91.4325, 23.6088], [91.4339, 23.6138], [91.4402, 23.622], [91.4372, 23.6249], [91.4481, 23.6325], [91.4483, 23.6385], [91.4535, 23.6426], [91.4594, 23.6442], [91.4593, 23.6466], [91.4621, 23.6578], [91.4626, 23.6627], [91.4663, 23.6625], [91.4719, 23.665], [91.4768, 23.6684], [91.4796, 23.673], [91.4822, 23.6731], [91.4874, 23.6767], [91.4895, 23.68], [91.4941, 23.681], [91.4975, 23.6846], [91.5033, 23.6876], [91.5042, 23.6949], [91.5084, 23.705], [91.5175, 23.7034], [91.5187, 23.7006], [91.5255, 23.7011], [91.5251, 23.7054], [91.5308, 23.7072], [91.5327, 23.7109], [91.5385, 23.712], [91.5358, 23.7161], [91.5374, 23.727], [91.5437, 23.7255], [91.5496, 23.7258], [91.559, 23.7281], [91.5613, 23.7336], [91.5643, 23.7361], [91.5684, 23.7364], [91.5726, 23.7406], [91.5753, 23.747], [91.575, 23.7556], [91.5697, 23.7572], [91.5656, 23.7623], [91.5697, 23.7762], [91.5674, 23.7862], [91.5656, 23.789]]]}, "properties": {"district": "Sipahijala", "key": "SEPAHIJALA"}, "id": 403}, {"type": "Feature", "geometry": {"type": "Polygon", "coordinates": [[[91.7677, 23.6894], [91.7634, 23.6876], [91.7587, 23.6832], [91.7563, 23.6851], [91.7542, 23.6912], [91.7514, 23.6944], [91.7402, 23.6987], [91.7362, 23.7031], [91.7358, 23.7085], [91.7394, 23.7112], [91.74, 23.7143], [91.7434, 23.7149], [91.7436, 23.7299], [91.739, 23.7334], [91.7396, 23.738], [91.7377, 23.7411], [91.7324, 23.7422], [91.7312, 23.746], [91.7262, 23.7465], [91.7221, 23.7516], [91.7222, 23.7581], [91.7172, 23.7597], [91.7171, 23.7689], [91.7135, 23.7688], [91.7029, 23.7615], [91.6953, 23.7601], [91.6927, 23.7577], [91.6896, 23.7601], [91.6828, 23.7602], [91.6799, 23.7629], [91.6716, 23.7642], [91.6686, 23.7625], [91.6647, 23.7636], [91.6567, 23.7631], [91.654, 23.7647], [91.6494, 23.7642], [91.6462, 23.7687], [91.6403, 23.7654], [91.6358, 23.7676], [91.631, 23.7682], [91.6272, 23.7663], [91.6227, 23.7661], [91.6173, 23.7681], [91.6098, 23.7646], [91.6017, 23.7644], [91.6005, 23.762], [91.5955, 23.7588], [91.5879, 23.7575], [91.5835, 23.7621], [91.5773, 23.7598], [91.5723, 23.7595], [91.575, 23.7556], [91.5753, 23.747], [91.5726, 23.7406], [91.5684, 23.7364], [91.5643, 23.7361], [91.5613, 23.7336], [91.559, 23.7281], [91.5496, 23.7258], [91.5437, 23.7255], [91.5374, 23.727], [91.5358, 23.7161], [91.5385, 23.712], [91.5327, 23.7109], [91.5308, 23.7072], [91.5251, 23.7054], [91.5255, 23.7011], [91.5187, 23.7006], [91.5175, 23.7034], [91.5084, 23.705], [91.5042, 23.6949], [91.5033, 23.6876], [91.4975, 23.6846], [91.4941, 23.681], [91.4895, 23.68], [91.4874, 23.6767], [91.4822, 23.6731], [91.4796, 23.673], [91.4768, 23.6684], [91.4719, 23.665], [91.4663, 23.6625], [91.4626, 23.6627], [91.4621, 23.6578], [91.4593, 23.6466], [91.4594, 23.6442], [91.4535, 23.6426], [91.4483, 23.6385], [91.4481, 23.6325], [91.4372, 23.6249], [91.4402, 23.622], [91.4339, 23.6138], [91.4325, 23.6088], [91.4295, 23.6087], [91.425, 23.6031], [91.4167, 23.6002], [91.4139, 23.5952], [91.4106, 23.5946], [91.4031, 23.5877], [91.3978, 23.5849], [91.3994, 23.5779], [91.3983, 23.5685], [91.3984, 23.5621], [91.3947, 23.5579], [91.3944, 23.5541], [91.398, 23.5511], [91.3968, 23.5482], [91.3986, 23.5437], [91.3985, 23.5392], [91.3954, 23.5368], [91.397, 23.5322], [91.4015, 23.5304], [91.4007, 23.5235], [91.3959, 23.525], [91.3908, 23.5244], [91.3873, 23.5257], [91.3797, 23.5216], [91.3756, 23.517], [91.38, 23.5115], [91.38, 23.5075], [91.3834, 23.5013], [91.383, 23.4963], [91.3849, 23.494], [91.3827, 23.486], [91.3882, 23.4831], [91.3923, 23.4788], [91.3875, 23.4754], [91.3842, 23.4701], [91.3812, 23.4681], [91.3795, 23.4627], [91.3799, 23.4553], [91.3788, 23.4491], [91.3768, 23.4445], [91.3795, 23.441], [91.3805, 23.4367], [91.3855, 23.4355], [91.3877, 23.4324], [91.3879, 23.4243], [91.3849, 23.4226], [91.3853, 23.4153], [91.384, 23.412], [91.3851, 23.4035], [91.3869, 23.4017], [91.3937, 23.3998], [91.4015, 23.3955], [91.4042, 23.3958], [91.4118, 23.3892], [91.4184, 23.39], [91.419, 23.3835], [91.4225, 23.3822], [91.4202, 23.3741], [91.4281, 23.3792], [91.4345, 23.3785], [91.4376, 23.3704], [91.4411, 23.3683], [91.4532, 23.3676], [91.4508, 23.3764], [91.4549, 23.3803], [91.462, 23.3809], [91.4638, 23.3833], [91.4626, 23.3871], [91.457, 23.3918], [91.4569, 23.3946], [91.4618, 23.3964], [91.4661, 23.3948], [91.4704, 23.3951], [91.4747, 23.3987], [91.4816, 23.3955], [91.4879, 23.3971], [91.4971, 23.398], [91.5026, 23.3956], [91.5077, 23.4], [91.5101, 23.405], [91.5171, 23.4079], [91.5205, 23.4064], [91.5243, 23.401], [91.5263, 23.4054], [91.5292, 23.407], [91.5329, 23.4026], [91.538, 23.4023], [91.5398, 23.4066], [91.5432, 23.4079], [91.5478, 23.404], [91.554, 23.4071], [91.5578, 23.4035], [91.5592, 23.398], [91.5621, 23.3938], [91.5631, 23.3892], [91.567, 23.386], [91.5751, 23.3838], [91.5812, 23.3872], [91.5843, 23.3876], [91.5922, 23.3857], [91.5983, 23.3865], [91.6042, 23.3909], [91.6052, 23.396], [91.6015, 23.4055], [91.6035, 23.4057], [91.6136, 23.4006], [91.614, 23.3929], [91.6165, 23.38], [91.6195, 23.373], [91.6246, 23.3644], [91.6287, 23.3615], [91.6333, 23.3556], [91.6384, 23.351], [91.6455, 23.3515], [91.6485, 23.3533], [91.6551, 23.3527], [91.663, 23.357], [91.6686, 23.3567], [91.6779, 23.3504], [91.6835, 23.3449], [91.6832, 23.3393], [91.6947, 23.3313], [91.7061, 23.321], [91.7149, 23.318], [91.7233, 23.3161], [91.7259, 23.3139], [91.7227, 23.3111], [91.7231, 23.3006], [91.7189, 23.292], [91.7216, 23.2869], [91.7306, 23.2781], [91.7405, 23.2634], [91.7426, 23.2629], [91.7481, 23.2684], [91.7538, 23.2705], [91.7649, 23.2716], [91.7694, 23.2692], [91.7738, 23.2699], [91.7695, 23.2723], [91.7666, 23.2715], [91.7615, 23.2767], [91.7626, 23.2801], [91.7601, 23.2822], [91.7606, 23.2866], [91.7632, 23.2949], [91.7615, 23.2961], [91.7645, 23.3045], [91.7644, 23.3099], [91.7732, 23.3161], [91.7779, 23.3171], [91.7813, 23.3205], [91.7822, 23.3239], [91.7907, 23.3265], [91.7938, 23.3289], [91.8039, 23.3321], [91.8075, 23.3369], [91.8065, 23.3401], [91.81, 23.3445], [91.817, 23.3458], [91.8192, 23.3514], [91.8239, 23.3523], [91.8255, 23.3633], [91.8322, 23.3695], [91.8376, 23.371], [91.8376, 23.3791], [91.8364, 23.3856], [91.8424, 23.3889], [91.8411, 23.4], [91.8415, 23.4092], [91.839, 23.4129], [91.84, 23.4155], [91.8387, 23.4223], [91.8432, 23.4245], [91.84, 23.4325], [91.8363, 23.437], [91.8349, 23.4421], [91.8287, 23.4428], [91.8282, 23.4463], [91.8318, 23.4505], [91.8261, 23.4617], [91.8247, 23.4673], [91.8133, 23.4688], [91.8112, 23.4762], [91.8082, 23.4768], [91.8049, 23.4846], [91.8014, 23.4843], [91.7978, 23.4894], [91.8005, 23.4922], [91.7993, 23.4966], [91.8016, 23.5039], [91.7986, 23.5058], [91.8042, 23.5125], [91.8011, 23.5178], [91.8066, 23.5259], [91.8046, 23.5274], [91.803, 23.5342], [91.8011, 23.5365], [91.7956, 23.5365], [91.7875, 23.5446], [91.7815, 23.5523], [91.7795, 23.5615], [91.7788, 23.5722], [91.7765, 23.5782], [91.7736, 23.5888], [91.7766, 23.5938], [91.7757, 23.6102], [91.7735, 23.6168], [91.766, 23.6262], [91.7689, 23.6318], [91.7692, 23.6391], [91.7658, 23.6438], [91.7646, 23.6517], [91.7557, 23.652], [91.7612, 23.6557], [91.7627, 23.6591], [91.7555, 23.6593], [91.7576, 23.6636], [91.7627, 23.6639], [91.7639, 23.6666], [91.7691, 23.6721], [91.765, 23.6804], [91.7652, 23.6844], [91.7677, 23.6894]]]}, "properties": {"district": "Gomati", "key": "GOMATI"}, "id": 420}, {"type": "Feature", "geometry": {"type": "Polygon", "coordinates": [[[91.7563, 24.1418], [91.7549, 24.1437], [91.7412, 24.1411], [91.7355, 24.1434], [91.7306, 24.1431], [91.7264, 24.1412], [91.7188, 24.1504], [91.7091, 24.1505], [91.7034, 24.1538], [91.7001, 24.161], [91.6952, 24.1618], [91.6889, 24.1585], [91.6822, 24.163], [91.6806, 24.1719], [91.6786, 24.1765], [91.6775, 24.1875], [91.6741, 24.1952], [91.6668, 24.2059], [91.6632, 24.2129], [91.6646, 24.2196], [91.6651, 24.2282], [91.6623, 24.2319], [91.6579, 24.228], [91.6538, 24.2261], [91.6527, 24.2235], [91.6468, 24.2174], [91.6493, 24.2071], [91.6475, 24.2036], [91.6493, 24.1953], [91.6533, 24.1949], [91.6562, 24.1846], [91.6532, 24.1769], [91.6488, 24.1756], [91.6417, 24.1784], [91.639, 24.17], [91.6403, 24.1561], [91.6379, 24.1495], [91.6291, 24.1383], [91.6348, 24.1251], [91.6354, 24.1142], [91.6313, 24.1036], [91.6283, 24.101], [91.6243, 24.1007], [91.621, 24.0973], [91.6095, 24.0948], [91.6073, 24.0922], [91.6019, 24.0922], [91.5948, 24.0966], [91.5877, 24.0922], [91.5896, 24.0884], [91.593, 24.0868], [91.587, 24.0772], [91.5827, 24.0768], [91.581, 24.0744], [91.5762, 24.0774], [91.5695, 24.0789], [91.5676, 24.0741], [91.5576, 24.0763], [91.5498, 24.0742], [91.5397, 24.0732], [91.5307, 24.0769], [91.5251, 24.0801], [91.5075, 24.0845], [91.4953, 24.085], [91.4906, 24.0917], [91.4902, 24.0966], [91.4848, 24.0966], [91.4807, 24.0933], [91.4777, 24.0797], [91.4717, 24.0734], [91.4698, 24.0696], [91.47, 24.0615], [91.4727, 24.0595], [91.4763, 24.0609], [91.4812, 24.0576], [91.4842, 24.0508], [91.4922, 24.044], [91.4929, 24.0363], [91.4927, 24.0245], [91.4952, 24.0195], [91.5012, 24.012], [91.4976, 24.0096], [91.4971, 24.003], [91.5059, 23.9958], [91.5052, 23.9936], [91.5089, 23.9861], [91.5149, 23.9791], [91.5179, 23.9705], [91.5216, 23.9662], [91.517, 23.9594], [91.5188, 23.9531], [91.5233, 23.9458], [91.5238, 23.9426], [91.5301, 23.935], [91.5341, 23.9348], [91.5381, 23.9365], [91.5397, 23.9326], [91.5374, 23.9267], [91.5303, 23.9157], [91.5321, 23.9111], [91.5365, 23.9106], [91.5432, 23.9064], [91.5509, 23.9081], [91.5499, 23.905], [91.5549, 23.8943], [91.5534, 23.8885], [91.5529, 23.8808], [91.5603, 23.871], [91.5622, 23.8607], [91.5613, 23.8568], [91.5625, 23.8533], [91.5602, 23.8493], [91.5589, 23.8371], [91.5595, 23.8289], [91.562, 23.8227], [91.5625, 23.8106], [91.5655, 23.8039], [91.5656, 23.789], [91.5674, 23.7862], [91.5697, 23.7762], [91.5656, 23.7623], [91.5697, 23.7572], [91.575, 23.7556], [91.5723, 23.7595], [91.5773, 23.7598], [91.5835, 23.7621], [91.5879, 23.7575], [91.5955, 23.7588], [91.6005, 23.762], [91.6017, 23.7644], [91.6098, 23.7646], [91.6173, 23.7681], [91.6227, 23.7661], [91.6272, 23.7663], [91.631, 23.7682], [91.6358, 23.7676], [91.6403, 23.7654], [91.6462, 23.7687], [91.6494, 23.7642], [91.654, 23.7647], [91.6567, 23.7631], [91.6647, 23.7636], [91.6686, 23.7625], [91.6716, 23.7642], [91.6799, 23.7629], [91.6828, 23.7602], [91.6896, 23.7601], [91.6927, 23.7577], [91.6953, 23.7601], [91.7029, 23.7615], [91.7135, 23.7688], [91.7171, 23.7689], [91.7172, 23.7597], [91.7222, 23.7581], [91.7221, 23.7516], [91.7262, 23.7465], [91.7312, 23.746], [91.7324, 23.7422], [91.7377, 23.7411], [91.7396, 23.738], [91.739, 23.7334], [91.7436, 23.7299], [91.7434, 23.7149], [91.74, 23.7143], [91.7394, 23.7112], [91.7358, 23.7085], [91.7362, 23.7031], [91.7402, 23.6987], [91.7514, 23.6944], [91.7542, 23.6912], [91.7563, 23.6851], [91.7587, 23.6832], [91.7634, 23.6876], [91.7677, 23.6894], [91.7744, 23.6918], [91.7726, 23.6943], [91.7706, 23.7031], [91.7776, 23.7077], [91.7783, 23.7192], [91.7748, 23.7266], [91.7736, 23.7325], [91.771, 23.7384], [91.7721, 23.742], [91.7785, 23.7469], [91.7794, 23.7492], [91.7783, 23.7554], [91.779, 23.7669], [91.7802, 23.7689], [91.7794, 23.776], [91.7772, 23.7829], [91.7787, 23.7897], [91.7789, 23.796], [91.7828, 23.8048], [91.7813, 23.8103], [91.7843, 23.8182], [91.7828, 23.8239], [91.78, 23.8257], [91.779, 23.8335], [91.7771, 23.8381], [91.7788, 23.8444], [91.7784, 23.8486], [91.7798, 23.8531], [91.7806, 23.8615], [91.7794, 23.8646], [91.78, 23.8705], [91.7789, 23.8778], [91.7791, 23.8891], [91.7774, 23.8945], [91.7801, 23.9037], [91.7785, 23.9125], [91.7726, 23.915], [91.7731, 23.9181], [91.7793, 23.9248], [91.7795, 23.9287], [91.7769, 23.9331], [91.7713, 23.9361], [91.7691, 23.9429], [91.7641, 23.9441], [91.7606, 23.9474], [91.7606, 23.9517], [91.7528, 23.9586], [91.7526, 23.9747], [91.7507, 23.9809], [91.7488, 23.9828], [91.7472, 23.995], [91.7484, 24.0112], [91.7519, 24.0227], [91.7494, 24.0309], [91.7508, 24.0522], [91.753, 24.0651], [91.7542, 24.0791], [91.754, 24.0919], [91.7526, 24.1027], [91.7539, 24.1078], [91.7503, 24.1257], [91.7443, 24.129], [91.7433, 24.1322], [91.7496, 24.1353], [91.7563, 24.1418]]]}, "properties": {"district": "Khowai", "key": "KHOWAI"}, "id": 543}, {"type": "Feature", "geometry": {"type": "Polygon", "coordinates": [[[91.5656, 23.789], [91.5655, 23.8039], [91.5625, 23.8106], [91.562, 23.8227], [91.5595, 23.8289], [91.5589, 23.8371], [91.5602, 23.8493], [91.5625, 23.8533], [91.5613, 23.8568], [91.5622, 23.8607], [91.5603, 23.871], [91.5529, 23.8808], [91.5534, 23.8885], [91.5549, 23.8943], [91.5499, 23.905], [91.5509, 23.9081], [91.5432, 23.9064], [91.5365, 23.9106], [91.5321, 23.9111], [91.5303, 23.9157], [91.5374, 23.9267], [91.5397, 23.9326], [91.5381, 23.9365], [91.5341, 23.9348], [91.5301, 23.935], [91.5238, 23.9426], [91.5233, 23.9458], [91.5188, 23.9531], [91.517, 23.9594], [91.5216, 23.9662], [91.5179, 23.9705], [91.5149, 23.9791], [91.5089, 23.9861], [91.5052, 23.9936], [91.5059, 23.9958], [91.4971, 24.003], [91.4976, 24.0096], [91.5012, 24.012], [91.4952, 24.0195], [91.4927, 24.0245], [91.4929, 24.0363], [91.4922, 24.044], [91.4842, 24.0508], [91.4812, 24.0576], [91.4763, 24.0609], [91.4727, 24.0595], [91.47, 24.0615], [91.4698, 24.0696], [91.4717, 24.0734], [91.4777, 24.0797], [91.4807, 24.0933], [91.4727, 24.0984], [91.4714, 24.0968], [91.4657, 24.0968], [91.4559, 24.0947], [91.4516, 24.0992], [91.444, 24.0954], [91.4417, 24.1005], [91.4378, 24.1012], [91.437, 24.0946], [91.4306, 24.1007], [91.4294, 24.1049], [91.4147, 24.1082], [91.4043, 24.1076], [91.4026, 24.1099], [91.3946, 24.1063], [91.3885, 24.1056], [91.3759, 24.1056], [91.3783, 24.0791], [91.3882, 24.0633], [91.3969, 24.0485], [91.3968, 24.0422], [91.3913, 24.0283], [91.3908, 24.0258], [91.3734, 24.0025], [91.3757, 23.9988], [91.3746, 23.9949], [91.3784, 23.9903], [91.3764, 23.9878], [91.3789, 23.9743], [91.3742, 23.9743], [91.3673, 23.98], [91.3626, 23.9823], [91.3599, 23.9855], [91.3553, 23.9856], [91.3531, 23.9813], [91.3472, 23.9832], [91.3396, 23.9817], [91.3359, 23.9836], [91.3316, 23.9904], [91.325, 23.9917], [91.3216, 23.9947], [91.316, 23.9931], [91.3136, 23.9906], [91.3093, 23.9921], [91.305, 23.9956], [91.3002, 23.9973], [91.2985, 23.9949], [91.3001, 23.9885], [91.2935, 23.977], [91.2937, 23.9724], [91.2906, 23.9694], [91.2837, 23.968], [91.2833, 23.9739], [91.2805, 23.9774], [91.2802, 23.9823], [91.2654, 23.9615], [91.2616, 23.9537], [91.2574, 23.9427], [91.2663, 23.9359], [91.2686, 23.9234], [91.2644, 23.9215], [91.2551, 23.919], [91.2423, 23.9206], [91.2341, 23.9201], [91.239, 23.9166], [91.2434, 23.9098], [91.2431, 23.9035], [91.2393, 23.9001], [91.2353, 23.8994], [91.2216, 23.8931], [91.2203, 23.8912], [91.2195, 23.8792], [91.2222, 23.8703], [91.2254, 23.8691], [91.2283, 23.8636], [91.2302, 23.8557], [91.2416, 23.8377], [91.2478, 23.8298], [91.2439, 23.8243], [91.238, 23.8136], [91.2349, 23.8123], [91.2349, 23.8087], [91.2316, 23.7975], [91.228, 23.7912], [91.2314, 23.7848], [91.232, 23.7763], [91.2308, 23.7646], [91.2272, 23.7599], [91.2275, 23.7534], [91.2236, 23.7483], [91.2209, 23.7424], [91.2211, 23.7371], [91.2296, 23.7318], [91.2358, 23.7396], [91.2432, 23.7402], [91.2468, 23.7374], [91.2465, 23.7321], [91.2529, 23.7315], [91.2586, 23.7333], [91.2592, 23.7288], [91.2696, 23.7233], [91.2774, 23.7226], [91.2791, 23.7291], [91.2838, 23.729], [91.2842, 23.7368], [91.2941, 23.745], [91.2984, 23.7439], [91.2984, 23.7363], [91.3043, 23.7299], [91.3073, 23.7302], [91.3107, 23.7232], [91.3165, 23.7273], [91.32, 23.7347], [91.3163, 23.7355], [91.3184, 23.7419], [91.3169, 23.7466], [91.3175, 23.7529], [91.316, 23.7556], [91.3174, 23.7618], [91.333, 23.7606], [91.3363, 23.7561], [91.3444, 23.7553], [91.3556, 23.7478], [91.3589, 23.7437], [91.3686, 23.7458], [91.3714, 23.7451], [91.3787, 23.7513], [91.3867, 23.7495], [91.3855, 23.7574], [91.389, 23.7717], [91.3936, 23.7704], [91.3983, 23.7673], [91.4037, 23.7665], [91.4075, 23.7682], [91.4183, 23.7693], [91.4275, 23.7683], [91.4309, 23.766], [91.4348, 23.7669], [91.4369, 23.7635], [91.4408, 23.7517], [91.4468, 23.7512], [91.4533, 23.7485], [91.4639, 23.7474], [91.4677, 23.7489], [91.474, 23.747], [91.4774, 23.7495], [91.4951, 23.754], [91.5036, 23.7552], [91.5167, 23.7605], [91.5226, 23.765], [91.5248, 23.7689], [91.5301, 23.7684], [91.5332, 23.7746], [91.5439, 23.7731], [91.5456, 23.7737], [91.5481, 23.7794], [91.5531, 23.7856], [91.5602, 23.7898], [91.5656, 23.789]]]}, "properties": {"district": "West Tripura", "key": "WEST TRIPURA"}, "id": 544}, {"type": "Feature", "geometry": {"type": "Polygon", "coordinates": [[[91.3101, 23.2758], [91.318, 23.2531], [91.3265, 23.2524], [91.3255, 23.2473], [91.3186, 23.2456], [91.3189, 23.24], [91.3236, 23.2377], [91.3236, 23.2046], [91.3247, 23.1688], [91.3232, 23.1583], [91.333, 23.153], [91.337, 23.1312], [91.3417, 23.129], [91.3415, 23.1183], [91.3474, 23.1188], [91.3469, 23.1024], [91.3514, 23.0974], [91.3697, 23.0705], [91.3903, 23.0598], [91.3964, 23.0561], [91.3991, 23.0585], [91.4046, 23.0587], [91.4158, 23.0628], [91.4119, 23.0655], [91.4136, 23.0762], [91.4161, 23.0812], [91.408, 23.0835], [91.405, 23.087], [91.406, 23.097], [91.4001, 23.0966], [91.4032, 23.1137], [91.3968, 23.1178], [91.3973, 23.1304], [91.3918, 23.1399], [91.3892, 23.1529], [91.3847, 23.1563], [91.3851, 23.1753], [91.3818, 23.1751], [91.3829, 23.1847], [91.3798, 23.1847], [91.3808, 23.1917], [91.3854, 23.1918], [91.3876, 23.208], [91.3808, 23.2087], [91.3881, 23.2147], [91.3919, 23.2201], [91.3863, 23.2276], [91.4004, 23.2295], [91.4003, 23.2351], [91.3931, 23.2467], [91.4086, 23.2477], [91.4005, 23.2562], [91.3972, 23.2564], [91.3975, 23.2652], [91.4003, 23.2658], [91.4054, 23.2568], [91.4112, 23.2559], [91.4094, 23.2728], [91.4087, 23.2853], [91.4133, 23.2816], [91.4153, 23.2828], [91.4196, 23.2733], [91.4168, 23.2695], [91.4155, 23.2626], [91.4186, 23.2583], [91.4211, 23.2619], [91.4246, 23.2598], [91.4312, 23.2625], [91.4411, 23.2616], [91.4485, 23.26], [91.4541, 23.2605], [91.4546, 23.2553], [91.451, 23.254], [91.4496, 23.2507], [91.4436, 23.2488], [91.4456, 23.2438], [91.4578, 23.2461], [91.4702, 23.2278], [91.4531, 23.2233], [91.4505, 23.2196], [91.4582, 23.2158], [91.4585, 23.2135], [91.4753, 23.2205], [91.4844, 23.2094], [91.4823, 23.1986], [91.4707, 23.1965], [91.4849, 23.1885], [91.4885, 23.1923], [91.4922, 23.189], [91.5031, 23.1922], [91.5042, 23.1894], [91.501, 23.1854], [91.5074, 23.1838], [91.5066, 23.18], [91.4973, 23.1798], [91.4917, 23.1776], [91.4923, 23.172], [91.4981, 23.1717], [91.4947, 23.162], [91.491, 23.1578], [91.4943, 23.1524], [91.5071, 23.1544], [91.4965, 23.1467], [91.4987, 23.143], [91.5017, 23.1432], [91.508, 23.1398], [91.5098, 23.1427], [91.5152, 23.1451], [91.5147, 23.1387], [91.5031, 23.1306], [91.5037, 23.1273], [91.5175, 23.1255], [91.5141, 23.1227], [91.5153, 23.1177], [91.5191, 23.1179], [91.5203, 23.1146], [91.5122, 23.1133], [91.5112, 23.1043], [91.5222, 23.1041], [91.5188, 23.0943], [91.5284, 23.0917], [91.5299, 23.0859], [91.525, 23.0829], [91.534, 23.0658], [91.5316, 23.063], [91.5246, 23.0615], [91.5237, 23.0569], [91.5272, 23.0559], [91.5352, 23.0561], [91.5342, 23.0494], [91.5304, 23.0384], [91.5503, 23.0385], [91.5429, 23.026], [91.5383, 23.0193], [91.5481, 23.0193], [91.5423, 22.9996], [91.5474, 22.9944], [91.557, 22.9967], [91.5573, 22.9786], [91.575, 22.9688], [91.5763, 22.9657], [91.5855, 22.9723], [91.5897, 22.9768], [91.594, 22.9731], [91.5977, 22.9761], [91.6008, 22.9721], [91.6061, 22.9716], [91.6056, 22.9655], [91.6115, 22.9628], [91.6122, 22.9584], [91.6059, 22.9627], [91.6038, 22.962], [91.5996, 22.9562], [91.6069, 22.9535], [91.608, 22.9507], [91.6124, 22.9486], [91.614, 22.9447], [91.6172, 22.9441], [91.6181, 22.9402], [91.621, 22.9397], [91.6254, 22.9434], [91.6241, 22.9501], [91.6272, 22.9563], [91.6251, 22.9605], [91.6272, 22.9618], [91.6317, 22.9592], [91.6372, 22.9624], [91.6406, 22.9698], [91.6413, 22.9747], [91.6461, 22.9786], [91.6454, 22.9835], [91.6506, 22.982], [91.6511, 22.9765], [91.6572, 22.9778], [91.6575, 22.9814], [91.6632, 22.9795], [91.6662, 22.9809], [91.669, 22.9781], [91.6728, 22.9778], [91.6777, 22.9802], [91.6833, 22.9775], [91.6866, 22.981], [91.6912, 22.9836], [91.6955, 22.9886], [91.703, 22.9885], [91.7065, 22.9839], [91.7125, 22.984], [91.7121, 22.9883], [91.7173, 22.9871], [91.7216, 22.9888], [91.7234, 22.9952], [91.7279, 22.9999], [91.7314, 23.0006], [91.744, 23.0069], [91.7459, 23.0114], [91.7517, 23.018], [91.7549, 23.0232], [91.7598, 23.0247], [91.7615, 23.0297], [91.7686, 23.034], [91.7684, 23.0389], [91.771, 23.0418], [91.7746, 23.0384], [91.773, 23.0323], [91.775, 23.027], [91.7799, 23.0286], [91.7815, 23.0347], [91.784, 23.0375], [91.7822, 23.0441], [91.7823, 23.0489], [91.7778, 23.0557], [91.779, 23.061], [91.7741, 23.0657], [91.7742, 23.0693], [91.7818, 23.0715], [91.7854, 23.0711], [91.789, 23.0675], [91.7939, 23.0688], [91.7942, 23.0624], [91.7987, 23.0649], [91.8047, 23.0632], [91.8066, 23.0669], [91.8118, 23.0662], [91.8112, 23.0698], [91.8176, 23.0737], [91.8172, 23.0786], [91.8239, 23.0832], [91.8222, 23.0862], [91.8308, 23.0902], [91.835, 23.0938], [91.8285, 23.0982], [91.8171, 23.1013], [91.8182, 23.1058], [91.8166, 23.1157], [91.8127, 23.1228], [91.8133, 23.1302], [91.8146, 23.1336], [91.809, 23.134], [91.8088, 23.1393], [91.8137, 23.1471], [91.8107, 23.1499], [91.811, 23.1526], [91.8065, 23.1581], [91.8097, 23.1636], [91.8058, 23.1669], [91.8063, 23.1746], [91.8045, 23.1772], [91.8058, 23.1802], [91.8007, 23.1839], [91.7973, 23.1847], [91.7985, 23.1909], [91.7979, 23.1956], [91.795, 23.197], [91.7892, 23.2044], [91.7888, 23.2078], [91.7928, 23.2093], [91.7888, 23.2162], [91.792, 23.218], [91.7913, 23.2266], [91.7848, 23.2322], [91.7858, 23.2393], [91.7839, 23.2435], [91.7778, 23.2418], [91.7804, 23.2466], [91.7762, 23.2657], [91.7738, 23.2699], [91.7694, 23.2692], [91.7649, 23.2716], [91.7538, 23.2705], [91.7481, 23.2684], [91.7426, 23.2629], [91.7405, 23.2634], [91.7306, 23.2781], [91.7216, 23.2869], [91.7189, 23.292], [91.7231, 23.3006], [91.7227, 23.3111], [91.7259, 23.3139], [91.7233, 23.3161], [91.7149, 23.318], [91.7061, 23.321], [91.6947, 23.3313], [91.6832, 23.3393], [91.6835, 23.3449], [91.6779, 23.3504], [91.6686, 23.3567], [91.663, 23.357], [91.6551, 23.3527], [91.6485, 23.3533], [91.6455, 23.3515], [91.6384, 23.351], [91.6333, 23.3556], [91.6287, 23.3615], [91.6246, 23.3644], [91.6195, 23.373], [91.6165, 23.38], [91.614, 23.3929], [91.6136, 23.4006], [91.6035, 23.4057], [91.6015, 23.4055], [91.6052, 23.396], [91.6042, 23.3909], [91.5983, 23.3865], [91.5922, 23.3857], [91.5843, 23.3876], [91.5812, 23.3872], [91.5751, 23.3838], [91.567, 23.386], [91.5631, 23.3892], [91.5621, 23.3938], [91.5592, 23.398], [91.5578, 23.4035], [91.554, 23.4071], [91.5478, 23.404], [91.5432, 23.4079], [91.5398, 23.4066], [91.538, 23.4023], [91.5329, 23.4026], [91.5292, 23.407], [91.5263, 23.4054], [91.5243, 23.401], [91.5205, 23.4064], [91.5171, 23.4079], [91.5101, 23.405], [91.5077, 23.4], [91.5026, 23.3956], [91.4971, 23.398], [91.4879, 23.3971], [91.4816, 23.3955], [91.4747, 23.3987], [91.4704, 23.3951], [91.4661, 23.3948], [91.4618, 23.3964], [91.4569, 23.3946], [91.457, 23.3918], [91.4626, 23.3871], [91.4638, 23.3833], [91.462, 23.3809], [91.4549, 23.3803], [91.4508, 23.3764], [91.4532, 23.3676], [91.4411, 23.3683], [91.4376, 23.3704], [91.4345, 23.3785], [91.4281, 23.3792], [91.4202, 23.3741], [91.4129, 23.3717], [91.4108, 23.3675], [91.4065, 23.3684], [91.4047, 23.3635], [91.4026, 23.3633], [91.3987, 23.3587], [91.3941, 23.3608], [91.3901, 23.3582], [91.3882, 23.3522], [91.3891, 23.3445], [91.3914, 23.3389], [91.3894, 23.3336], [91.3863, 23.3304], [91.3875, 23.3267], [91.3854, 23.3246], [91.3811, 23.3258], [91.3774, 23.3231], [91.3777, 23.3206], [91.3745, 23.3156], [91.373, 23.3097], [91.3698, 23.3078], [91.37, 23.3022], [91.3603, 23.2954], [91.3567, 23.2936], [91.3568, 23.2907], [91.3474, 23.2828], [91.3395, 23.2789], [91.3364, 23.2791], [91.3294, 23.2766], [91.3262, 23.2767], [91.3206, 23.2802], [91.3161, 23.2801], [91.3101, 23.2758]]]}, "properties": {"district": "South Tripura", "key": "SOUTH TRIPURA"}, "id": 545}, {"type": "Feature", "geometry": {"type": "Polygon", "coordinates": [[[92.07, 24.3767], [92.0685, 24.3763], [92.0477, 24.3775], [92.0354, 24.3796], [92.034, 24.3825], [92.0264, 24.3835], [92.0244, 24.387], [92.0199, 24.389], [92.0115, 24.3842], [92.0079, 24.3842], [92.0077, 24.3878], [92.0038, 24.3927], [91.9999, 24.3942], [91.9933, 24.3912], [91.9915, 24.3828], [91.9883, 24.3802], [91.986, 24.3835], [91.9798, 24.3847], [91.9766, 24.3871], [91.9739, 24.3819], [91.9745, 24.3774], [91.9769, 24.3742], [91.9813, 24.3735], [91.9804, 24.37], [91.9853, 24.366], [91.9812, 24.3636], [91.9821, 24.3596], [91.9921, 24.348], [91.9949, 24.3384], [91.9916, 24.338], [91.9943, 24.3323], [91.9938, 24.3289], [91.9846, 24.3271], [91.9801, 24.329], [91.9797, 24.3328], [91.9762, 24.3333], [91.973, 24.3373], [91.9726, 24.3451], [91.9681, 24.3502], [91.9685, 24.3528], [91.9652, 24.3571], [91.9581, 24.3584], [91.957, 24.3568], [91.9446, 24.3509], [91.9423, 24.3463], [91.9369, 24.3437], [91.9327, 24.3437], [91.9262, 24.3416], [91.922, 24.3373], [91.9276, 24.319], [91.9346, 24.2976], [91.9377, 24.2867], [91.9401, 24.2839], [91.9423, 24.2631], [91.9414, 24.2575], [91.9368, 24.2463], [91.9323, 24.2316], [91.9261, 24.2132], [91.9171, 24.1722], [91.9168, 24.1643], [91.9191, 24.154], [91.9163, 24.1479], [91.9105, 24.1406], [91.9178, 24.131], [91.9192, 24.123], [91.9183, 24.1155], [91.9226, 24.1119], [91.9235, 24.1082], [91.9337, 24.1028], [91.9366, 24.0991], [91.9424, 24.0963], [91.9471, 24.0961], [91.9509, 24.0942], [91.9606, 24.083], [91.9628, 24.0781], [91.9717, 24.0724], [91.968, 24.0699], [91.9666, 24.0615], [91.9705, 24.0603], [91.9717, 24.064], [91.9752, 24.0661], [91.9788, 24.0653], [91.9886, 24.0737], [91.9902, 24.0793], [91.9931, 24.0817], [91.9984, 24.0793], [92.0016, 24.075], [92.0037, 24.0804], [92.0022, 24.0858], [92.0057, 24.0921], [92.0064, 24.0994], [92.0106, 24.0991], [92.0149, 24.0926], [92.0222, 24.0948], [92.0302, 24.0904], [92.0421, 24.0973], [92.0507, 24.1001], [92.0549, 24.1001], [92.0702, 24.0978], [92.0734, 24.0957], [92.0716, 24.0904], [92.0661, 24.0829], [92.0692, 24.0754], [92.0672, 24.0656], [92.0642, 24.0575], [92.066, 24.0514], [92.0598, 24.0323], [92.0593, 24.0284], [92.067, 24.0253], [92.0747, 24.0194], [92.0843, 24.0182], [92.0871, 24.016], [92.0854, 24.0117], [92.0858, 24.0071], [92.0811, 23.9996], [92.083, 23.9894], [92.0969, 23.9928], [92.0998, 23.9915], [92.1068, 23.9918], [92.1165, 23.995], [92.1187, 24.0024], [92.1129, 24.0047], [92.109, 24.0077], [92.1081, 24.0165], [92.1117, 24.0213], [92.1104, 24.0238], [92.1168, 24.0249], [92.1171, 24.0326], [92.1225, 24.0383], [92.1332, 24.0326], [92.1381, 24.0393], [92.1427, 24.0408], [92.143, 24.0439], [92.1386, 24.0461], [92.1419, 24.0493], [92.1451, 24.0579], [92.1482, 24.0635], [92.1607, 24.0781], [92.1618, 24.0897], [92.1672, 24.1038], [92.1645, 24.11], [92.1615, 24.1104], [92.159, 24.1141], [92.1522, 24.1145], [92.1456, 24.1161], [92.1459, 24.118], [92.1514, 24.1195], [92.1555, 24.1246], [92.1668, 24.1324], [92.173, 24.1337], [92.181, 24.1369], [92.1876, 24.1422], [92.1923, 24.1442], [92.1948, 24.15], [92.2019, 24.1534], [92.2032, 24.1582], [92.2051, 24.1758], [92.2048, 24.1819], [92.2005, 24.1842], [92.1927, 24.1827], [92.1875, 24.1846], [92.1846, 24.188], [92.1845, 24.1917], [92.1779, 24.1935], [92.174, 24.1905], [92.1705, 24.1928], [92.1672, 24.2027], [92.1642, 24.2033], [92.1526, 24.2019], [92.1451, 24.2018], [92.1417, 24.1995], [92.139, 24.192], [92.1361, 24.1954], [92.134, 24.2058], [92.1339, 24.2146], [92.13, 24.2211], [92.1226, 24.2218], [92.1205, 24.2282], [92.1101, 24.2363], [92.1046, 24.2369], [92.1014, 24.2421], [92.0996, 24.2497], [92.1001, 24.2589], [92.0972, 24.264], [92.0892, 24.2612], [92.0786, 24.2677], [92.07, 24.2711], [92.0682, 24.2706], [92.0697, 24.2894], [92.0714, 24.3004], [92.0682, 24.3035], [92.063, 24.3112], [92.0626, 24.3135], [92.0659, 24.3332], [92.0681, 24.3397], [92.0688, 24.3561], [92.0683, 24.362], [92.0688, 24.371], [92.07, 24.3767]]]}, "properties": {"district": "Unokoti", "key": "UNAKOTI"}, "id": 546}]}